#cP2019  2 10  0  0  0.00000000      96 ORBIT IGS14 HLM  IGS
## 2040      0.00000000   900.00000000 58524 0.0000000000000
+   32   G01G02G03G04G05G06G07G08G09G10G11G12G13G14G15G16G17
+        G18G19G20G21G22G23G24G25G26G27G28G29G30G31G32  0  0
+          0  0  0  0  0  0  0  0  0  0  0  0  0  0  0  0  0
+          0  0  0  0  0  0  0  0  0  0  0  0  0  0  0  0  0
+          0  0  0  0  0  0  0  0  0  0  0  0  0  0  0  0  0
++         2  2  2  4  2  2  2  1  2  2  2  2  2  2  2  2  2
++         2  2  2  2  2  3  2  2  2  2  2  2  2  2  2  0  0
++         0  0  0  0  0  0  0  0  0  0  0  0  0  0  0  0  0
++         0  0  0  0  0  0  0  0  0  0  0  0  0  0  0  0  0
++         0  0  0  0  0  0  0  0  0  0  0  0  0  0  0  0  0
%c G  cc GPS ccc cccc cccc cccc cccc ccccc ccccc ccccc ccccc
%c cc cc ccc ccc cccc cccc cccc cccc ccccc ccccc ccccc ccccc
%f  1.2500000  1.025000000  0.00000000000  0.000000000000000
%f  0.0000000  0.000000000  0.00000000000  0.000000000000000
%i    0    0    0    0      0      0      0      0         0
%i    0    0    0    0      0      0      0      0         0
/* FINAL ORBIT COMBINATION FROM WEIGHTED AVERAGE OF:        
/* cod emr esa gfz grg jpl mit ngs sio                      
/* REFERENCED TO IGS TIME (IGST) AND TO WEIGHTED MEAN POLE: 
/* PCV:IGS14_2038 OL/AL:FES2004  NONE     Y  ORB:CMB CLK:CMB
*  2019  2 10  9  0  0.00000000
PG01    620.765902  15377.274546 -21781.684746   -160.624484  6  4  4  77       
PG02  19862.665125 -15184.961670   9278.248232   -136.077571  6  4  3  71       
PG03   9261.277982  20865.273110 -13672.244096    182.220401 10  9  7  77       
PG04  12297.727805  11183.211053  20724.984178    109.708750  9 10 12 115       
PG05  10034.028864 -11685.489298  21519.011459      1.048386  4  4  6  76       
PG06  25526.810855  -7004.045991  -2333.855402    278.859994  5  5  4  89       
PG07  15986.447516   9317.291510  19461.611144     35.304279  7  5  3  72       
PG08  -5935.205956  25732.904261   1616.650523   -132.212942  7  4  3  91       
PG09   9668.547393  17143.727063  17783.124768    460.534294  6  4  3  81       
PG10 -22244.808057  -8436.293142 -11955.050458    119.613961  5  6  3  98       
PG11  -2586.830238  20807.026883 -16966.474019   -662.495415  7  8  2  82       
PG12  -6240.611226 -20890.337513 -15500.245997    269.165486  8  5  8  97       
PG13  12769.309715 -21964.124121   7564.152340    -75.420024  4  7  4  78       
PG14 -16141.130712   9149.237577 -18631.726254    -91.671000  6  4  6  82       
PG15   2065.472500 -26252.787594  -1009.867750   -328.506454  6  7  4  94       
PG16  -9819.399422  10848.261834  21981.223420    -18.271277  4  6  4 106       
PG17  14638.460865   1086.728088 -21721.253512      7.689187  6  6  4  80       
PG18  -9954.587957  17458.417024 -17776.523733     24.502807  5  4  4 118       
PG19  16260.326859  -8780.321543 -19408.187303   -354.061325  5  6  5  71       
PG20 -22786.735620 -13606.653891  -2371.230636    522.051842  6  5  3  60       
PG21 -18336.188381  -7093.566330  18619.092558   -252.921371  7  8  8  90       
PG22   2388.018484  19013.027903 -18175.469235   -642.112526  7  6  6  80       
PG23   3170.639633  24191.978215  10287.229560   -197.729920  9  8  6  89       
PG24   3609.186083 -17148.287223 -20021.024875    -61.975157  3  5  3  85       
PG25 -16338.477654 -20220.394870  -6279.604274   -718.361880  8  7  6  85       
PG26 -17329.625081   3812.962599  19802.720479    120.475495  3  6  7  93       
PG27 -11752.601147  20840.560451  11121.674121    -64.897224  6  4  1  87       
PG28  20931.192270  11766.730800 -10636.887622    764.240411  5  6  5  73       
PG29  -5153.471228 -20829.203008  15632.726809    273.799583  5  8  5  82       
PG30  23931.096864   1892.122043  11567.644013    -50.262026  6  5  3  80       
PG31 -25713.588586   7561.713391   -370.780223     59.670163  6  5  5  74       
PG32 -15693.956163   2246.763335 -21254.842282   -233.921078  5  3  2  95       
*  2019  2 10  9 15  0.00000000
PG01  -1671.398412  16156.272898 -21120.544984   -160.630688  6  4  4  84       
PG02  20739.084669 -15289.076345   6624.268306   -136.086498  6  4  2  75       
PG03   7854.640878  19935.899675 -15776.166024    182.222139  9  8  7  94       
PG04  11754.771164  13430.643743  19678.657021    109.717766  9 10 12 125       
PG05  11977.473438 -10145.576733  21324.341709      1.048212  4  4  5  81       
PG06  25196.698187  -6651.658850  -5171.255295    278.852802  6  5  4  76       
PG07  13910.742541  10143.341476  20582.849087     35.297746  6  4  4  61       
PG08  -6121.357943  25355.577085   4474.149694   -132.214431  7  4  3  81       
PG09   9201.342955  19039.529100  16018.654774    460.529714  6  5  3  87       
PG10 -23063.087147  -9373.477772  -9475.607507    119.607278  5  6  4  60       
PG11  -3987.003334  21901.146013 -15187.589117   -662.490373  7  8  2  92       
PG12  -4826.394085 -19709.589268 -17438.847843    269.162997  7  4  7  93       
PG13  12687.939297 -20913.384123  10187.131094    -75.418542  4  6  3  85       
PG14 -15718.636838   6915.404127 -19908.194476    -91.670340  6  3  6  75       
PG15   2438.550143 -26151.672102   1801.367006   -328.504906  6  7  4  78       
PG16 -11645.722982   9078.386528  21930.309275    -18.273517  4  6  5 106       
PG17  14091.833418   3603.000288 -21817.537432      7.694072  6  6  4  98       
PG18 -11728.487579  18031.724826 -15969.597581     24.506080  5  3  4 115       
PG19  15749.817582  -6611.486730 -20658.722001   -354.057600  5  6  5  85       
PG20 -22692.418256 -13938.545414    411.619885    522.052237  5  4  3  74       
PG21 -16497.385946  -8041.183925  19974.330008   -252.914731  7  8  8  92       
PG22    500.433575  17859.941087 -19430.731439   -642.120115  7  6  6  80       
PG23   2725.451871  25141.433317   7704.583158   -197.728829  9  8  6  84       
PG24   5696.634247 -17886.664342 -18816.396997    -61.975612  3  5  3  63       
PG25 -15571.133346 -19828.100358  -8964.333167   -718.366777  8  6  6  68       
PG26 -18977.382093   2364.370293  18490.668375    120.484907  4  6  7 101       
PG27 -11709.524083  19398.437105  13525.517274    -64.903768  6  4  2  85       
PG28  21612.934861  12708.602691  -8008.148342    764.241140  6  6  5  85       
PG29  -4639.714958 -22417.087257  13448.049438    273.791895  6  7  5  87       
PG30  22625.298816   2564.359230  13830.091162    -50.267666  6  5  3  76       
PG31 -25593.926485   7287.310016  -3190.592478     59.667847  6  6  5  82       
PG32 -15345.438563   -193.560763 -21632.690725   -233.904455  5  4  1  92       
*  2019  2 10  9 30  0.00000000
PG01  -3834.113213  17021.832761 -20099.396628   -160.636856  6  4  5  80       
PG02  21341.871085 -15294.025944   3856.885689   -136.095349  5  5  2  43       
PG03   6221.348692  18950.463194 -17610.071679    182.223874  9  7  7  90       
PG04  11348.143602  15567.054917  18293.969199    109.726696  7 10 12 125       
PG05  13958.398178  -8730.822801  20759.357602      1.048848  4  4  5  89       
PG06  24597.142727  -6152.266540  -7919.724051    278.845569  6  5  4  95       
PG07  11780.960138  11119.943639  21360.598855     35.291767  5  4  4  73       
PG08  -6297.115065  24669.450818   7253.816897   -132.215704  7  4  2  87       
PG09   8851.090395  20741.749251  13977.534622    460.525133  7  5  4  88       
PG10 -23695.655899 -10095.518812  -6834.482683    119.600576  5  5  4  83       
PG11  -5200.973102  22899.972019 -13158.456112   -662.485059  7  8  2  97       
PG12  -3193.284788 -18481.709265 -19083.873215    269.159947  7  3  7  91       
PG13  12597.764515 -19578.428028  12633.534728    -75.417438  4  5  3  83       
PG14 -15387.588849   4538.972408 -20831.509802    -91.669717  6  3  6  86       
PG15   2812.037706 -25749.402792   4580.744191   -328.503651  6  6  4  79       
PG16 -13543.181087   7433.713670  21496.818348    -18.275938  5  5  5 100       
PG17  13685.210469   6132.933213 -21523.729096      7.698543  7  6  5  91       
PG18 -13280.948910  18598.468658 -13894.880409     24.509769  4  4  4 117       
PG19  15337.585348  -4299.636864 -21563.436016   -354.053883  6  7  5  95       
PG20 -22341.764819 -14121.441858   3187.434382    522.052388  5  4  2  78       
PG21 -14597.107826  -9139.097296  21006.864568   -252.908200  7  8  8  68       
PG22  -1543.903264  16728.671703 -20345.396346   -642.127301  6  5  6  73       
PG23   2350.965258  25813.562453   4987.500619   -197.727726 10  8  5  97       
PG24   7611.429840 -18657.514474 -17288.674839    -61.975498  4  5  3  85       
PG25 -14548.143089 -19304.596146 -11498.168765   -718.371668  8  5  7  98       
PG26 -20559.797729   1097.691296  16861.896462    120.494253  5  7  8  81       
PG27 -11717.731545  17696.670193  15692.032723    -64.910249  6  3  2  71       
PG28  22112.469142  13402.528975  -5237.732230    764.241964  6  6  5  91       
PG29  -4259.388079 -23773.468894  11031.666350    273.783789  6  7  5  94       
PG30  21128.839730   3388.012771  15856.678462    -50.273336  6  5  3  69       
PG31 -25199.372902   6888.242655  -5956.951364     59.665326  6  6  5  72       
PG32 -15120.559407  -2669.063509 -21636.769787   -233.887928  5  5  2  96       
EOF
